{
  "norad_id": 56131,
  "name": "STARLINK-6120",
  "history": [
    {
      "epoch": "2026-03-28T20:00:01.999872Z",
      "apogee_km": 483.9794499000873,
      "perigee_km": 482.21583814718724,
      "latitude_deg": 31.56897881550829,
      "longitude_deg": 51.728963126876636,
      "height_km": 484.55519039833354,
      "semi_major_axis_km": 6861.234644023637,
      "eccentricity": 0.00012852,
      "inclination_deg": 43.0008,
      "raan_deg": 38.9253,
      "arg_perigee_deg": 264.9224,
      "mean_anomaly_deg": 225.1797,
      "mean_motion_rev_day": 15.27563787
    },
    {
      "epoch": "2026-03-29T03:16:48.332928Z",
      "apogee_km": 483.95406712179374,
      "perigee_km": 482.1372259569898,
      "latitude_deg": 1.641638265235906e-08,
      "longitude_deg": 161.46312333363977,
      "height_km": 482.7919747248481,
      "semi_major_axis_km": 6861.1826465393915,
      "eccentricity": 0.0001324,
      "inclination_deg": 43.0027,
      "raan_deg": 37.2116,
      "arg_perigee_deg": 271.9313,
      "mean_anomaly_deg": 88.1387,
      "mean_motion_rev_day": 15.27581152
    },
    {
      "epoch": "2026-03-30T01:14:59.554752Z",
      "apogee_km": 483.8818283614428,
      "perigee_km": 482.20358380533526,
      "latitude_deg": -4.4455172996770724e-05,
      "longitude_deg": -174.15664815243613,
      "height_km": 482.8594678702582,
      "semi_major_axis_km": 6861.179706083389,
      "eccentricity": 0.0001223,
      "inclination_deg": 43.0019,
      "raan_deg": 32.0409,
      "arg_perigee_deg": 267.2678,
      "mean_anomaly_deg": 92.8033,
      "mean_motion_rev_day": 15.27582134
    },
    {
      "epoch": "2026-03-30T01:14:59.555616Z",
      "apogee_km": 483.88189697324015,
      "perigee_km": 482.2035151935379,
      "latitude_deg": -4.368161245691824e-05,
      "longitude_deg": -174.15665093737096,
      "height_km": 482.85947114162065,
      "semi_major_axis_km": 6861.179706083389,
      "eccentricity": 0.00012231,
      "inclination_deg": 43.0019,
      "raan_deg": 32.0409,
      "arg_perigee_deg": 267.2678,
      "mean_anomaly_deg": 92.8033,
      "mean_motion_rev_day": 15.27582134
    },
    {
      "epoch": "2026-03-30T20:04:52.461120Z",
      "apogee_km": 483.8426526133153,
      "perigee_km": 482.28214142245724,
      "latitude_deg": -4.665210558269028e-05,
      "longitude_deg": -101.8330693833509,
      "height_km": 482.95168141949415,
      "semi_major_axis_km": 6861.1993970178855,
      "eccentricity": 0.00011372,
      "inclination_deg": 43.0006,
      "raan_deg": 27.6083,
      "arg_perigee_deg": 261.6908,
      "mean_anomaly_deg": 98.3814,
      "mean_motion_rev_day": 15.27575558
    }
  ]
}